TECHNOSAT               
1 42829U 17042E   26115.91659863  .00004181  00000+0  30092-3 0  9991
2 42829  97.4231 275.5930 0016421 272.2799  87.6547 15.04631896478847
FLYING LAPTOP           
1 42831U 17042G   26115.91973495  .00002783  00000+0  22296-3 0  9997
2 42831  97.4455 273.5510 0018221 303.8617  56.0873 15.00808440478614
HAWK-A                  
1 43765U 18099H   26115.70022158  .00007697  00000+0  31515-3 0  9998
2 43765  97.3965 168.6348 0037068 109.8643 250.6595 15.23942854405102
HAWK-B                  
1 43794U 18099AN  26115.65989217  .00006507  00000+0  28213-3 0  9992
2 43794  97.4013 168.1180 0033981 126.5669 233.8703 15.22174947405048
HAWK-C                  
1 43799U 18099AT  26115.66219362  .00008872  00000+0  32604-3 0  9991
2 43799  97.3942 169.2570 0042940 111.0387 249.5452 15.27257797405897
SALSAT                  
1 46495U 20068K   26115.93492936  .00009598  00000+0  34294-3 0  9999
2 46495  97.8865 115.8517 0011523 121.2153 239.0216 15.29005761307377
HAWK-2C                 
1 47502U 21006CT  26115.65242948  .00006460  00000+0  19847-3 0  9999
2 47502  97.2332 161.0225 0007807  42.4509 317.7336 15.34014927291445
HAWK-2A                 
1 47505U 21006CW  26115.65538821  .00006479  00000+0  19900-3 0  9990
2 47505  97.2375 161.6722 0007497  46.4014 313.7850 15.34027267291441
HAWK-2B                 
1 47508U 21006CZ  26115.65246806  .00007351  00000+0  22540-3 0  9996
2 47508  97.2247 160.0876 0007959  43.5958 316.5913 15.34029930291443
HAWK-3B                 
1 48931U 21059BE  26115.52654821  .00053561  00000+0  53699-3 0  9994
2 48931  97.6712 307.4247 0005975 156.6043 203.5489 15.65350301269600
HAWK-3C                 
1 48948U 21059BX  26115.59013786  .00043782  00000+0  43962-3 0  9994
2 48948  97.6840 313.0851 0006438 154.1588 205.9994 15.65350352269610
HAWK-3A                 
1 48957U 21059CG  26115.52609128  .00046182  00000+0  46351-3 0  9990
2 48957  97.6785 310.2636 0006115 155.4342 204.7209 15.65353655269606
HAWK-5C                 
1 52754U 22057Y   26115.89505306  .00021685  00000+0  39542-3 0  9997
2 52754  97.6525 272.2983 0003704 247.3820 112.7039 15.49469619218246
HAWK-5B                 
1 52756U 22057AA  26115.89492748  .00022935  00000+0  41798-3 0  9999
2 52756  97.6527 270.6411 0003890 242.2336 117.8520 15.49472631218249
HAWK-5A                 
1 52757U 22057AB  26115.89467959  .00021772  00000+0  39697-3 0  9999
2 52757  97.6521 271.4743 0004092 244.3908 115.6920 15.49468636218244
HAWK-6B                 
1 55324U 23011A   26115.77937903  .00005790  00000+0  25315-3 0  9995
2 55324  40.4993 297.6380 0002827 354.1039   5.9736 15.22446980179850
HAWK-6C                 
1 55326U 23011C   26115.84434810  .00005828  00000+0  25474-3 0  9992
2 55326  40.4983 294.1038 0003437 342.1905  17.8784 15.22450942179870
