[{"OBJECT_NAME":"TECHNOSAT","OBJECT_ID":"2017-042E","EPOCH":"2026-04-25T21:59:54.121632","MEAN_MOTION":15.04631896,"ECCENTRICITY":0.00164213,"INCLINATION":97.4231,"RA_OF_ASC_NODE":275.593,"ARG_OF_PERICENTER":272.2799,"MEAN_ANOMALY":87.6547,"EPHEMERIS_TYPE":0,"CLASSIFICATION_TYPE":"U","NORAD_CAT_ID":42829,"ELEMENT_SET_NO":999,"REV_AT_EPOCH":47884,"BSTAR":0.0003009211,"MEAN_MOTION_DOT":4.181e-5,"MEAN_MOTION_DDOT":0},{"OBJECT_NAME":"FLYING LAPTOP","OBJECT_ID":"2017-042G","EPOCH":"2026-04-25T22:04:25.099680","MEAN_MOTION":15.0080844,"ECCENTRICITY":0.00182215,"INCLINATION":97.4455,"RA_OF_ASC_NODE":273.551,"ARG_OF_PERICENTER":303.8617,"MEAN_ANOMALY":56.0873,"EPHEMERIS_TYPE":0,"CLASSIFICATION_TYPE":"U","NORAD_CAT_ID":42831,"ELEMENT_SET_NO":999,"REV_AT_EPOCH":47861,"BSTAR":0.000222956,"MEAN_MOTION_DOT":2.783e-5,"MEAN_MOTION_DDOT":0},{"OBJECT_NAME":"HAWK-A","OBJECT_ID":"2018-099H","EPOCH":"2026-04-25T16:48:19.144512","MEAN_MOTION":15.23942854,"ECCENTRICITY":0.00370682,"INCLINATION":97.3965,"RA_OF_ASC_NODE":168.6348,"ARG_OF_PERICENTER":109.8643,"MEAN_ANOMALY":250.6595,"EPHEMERIS_TYPE":0,"CLASSIFICATION_TYPE":"U","NORAD_CAT_ID":43765,"ELEMENT_SET_NO":999,"REV_AT_EPOCH":40510,"BSTAR":0.00031515196,"MEAN_MOTION_DOT":7.697e-5,"MEAN_MOTION_DDOT":0},{"OBJECT_NAME":"HAWK-B","OBJECT_ID":"2018-099AN","EPOCH":"2026-04-25T15:50:14.683488","MEAN_MOTION":15.22174947,"ECCENTRICITY":0.00339811,"INCLINATION":97.4013,"RA_OF_ASC_NODE":168.118,"ARG_OF_PERICENTER":126.5669,"MEAN_ANOMALY":233.8703,"EPHEMERIS_TYPE":0,"CLASSIFICATION_TYPE":"U","NORAD_CAT_ID":43794,"ELEMENT_SET_NO":999,"REV_AT_EPOCH":40504,"BSTAR":0.00028213401,"MEAN_MOTION_DOT":6.507e-5,"MEAN_MOTION_DDOT":0},{"OBJECT_NAME":"HAWK-C","OBJECT_ID":"2018-099AT","EPOCH":"2026-04-25T15:53:33.528768","MEAN_MOTION":15.27257797,"ECCENTRICITY":0.00429401,"INCLINATION":97.3942,"RA_OF_ASC_NODE":169.257,"ARG_OF_PERICENTER":111.0387,"MEAN_ANOMALY":249.5452,"EPHEMERIS_TYPE":0,"CLASSIFICATION_TYPE":"U","NORAD_CAT_ID":43799,"ELEMENT_SET_NO":999,"REV_AT_EPOCH":40589,"BSTAR":0.00032603955,"MEAN_MOTION_DOT":8.872e-5,"MEAN_MOTION_DDOT":0},{"OBJECT_NAME":"SALSAT","OBJECT_ID":"2020-068K","EPOCH":"2026-04-25T22:26:17.896704","MEAN_MOTION":15.29005761,"ECCENTRICITY":0.00115234,"INCLINATION":97.8865,"RA_OF_ASC_NODE":115.8517,"ARG_OF_PERICENTER":121.2153,"MEAN_ANOMALY":239.0216,"EPHEMERIS_TYPE":0,"CLASSIFICATION_TYPE":"U","NORAD_CAT_ID":46495,"ELEMENT_SET_NO":999,"REV_AT_EPOCH":30737,"BSTAR":0.00034294036,"MEAN_MOTION_DOT":9.598e-5,"MEAN_MOTION_DDOT":0},{"OBJECT_NAME":"HAWK-2C","OBJECT_ID":"2021-006CT","EPOCH":"2026-04-25T15:39:29.907072","MEAN_MOTION":15.34014927,"ECCENTRICITY":0.0007807,"INCLINATION":97.2332,"RA_OF_ASC_NODE":161.0225,"ARG_OF_PERICENTER":42.4509,"MEAN_ANOMALY":317.7336,"EPHEMERIS_TYPE":0,"CLASSIFICATION_TYPE":"U","NORAD_CAT_ID":47502,"ELEMENT_SET_NO":999,"REV_AT_EPOCH":29144,"BSTAR":0.00019847442,"MEAN_MOTION_DOT":6.46e-5,"MEAN_MOTION_DDOT":0},{"OBJECT_NAME":"HAWK-2A","OBJECT_ID":"2021-006CW","EPOCH":"2026-04-25T15:43:45.541344","MEAN_MOTION":15.34027267,"ECCENTRICITY":0.0007497,"INCLINATION":97.2375,"RA_OF_ASC_NODE":161.6722,"ARG_OF_PERICENTER":46.4014,"MEAN_ANOMALY":313.785,"EPHEMERIS_TYPE":0,"CLASSIFICATION_TYPE":"U","NORAD_CAT_ID":47505,"ELEMENT_SET_NO":999,"REV_AT_EPOCH":29144,"BSTAR":0.00019899514,"MEAN_MOTION_DOT":6.479e-5,"MEAN_MOTION_DDOT":0},{"OBJECT_NAME":"HAWK-2B","OBJECT_ID":"2021-006CZ","EPOCH":"2026-04-25T15:39:33.240384","MEAN_MOTION":15.3402993,"ECCENTRICITY":0.00079594,"INCLINATION":97.2247,"RA_OF_ASC_NODE":160.0876,"ARG_OF_PERICENTER":43.5958,"MEAN_ANOMALY":316.5913,"EPHEMERIS_TYPE":0,"CLASSIFICATION_TYPE":"U","NORAD_CAT_ID":47508,"ELEMENT_SET_NO":999,"REV_AT_EPOCH":29144,"BSTAR":0.00022539588,"MEAN_MOTION_DOT":7.351e-5,"MEAN_MOTION_DDOT":0},{"OBJECT_NAME":"HAWK-3B","OBJECT_ID":"2021-059BE","EPOCH":"2026-04-25T12:38:13.765344","MEAN_MOTION":15.65350301,"ECCENTRICITY":0.0005975,"INCLINATION":97.6712,"RA_OF_ASC_NODE":307.4247,"ARG_OF_PERICENTER":156.6043,"MEAN_ANOMALY":203.5489,"EPHEMERIS_TYPE":0,"CLASSIFICATION_TYPE":"U","NORAD_CAT_ID":48931,"ELEMENT_SET_NO":999,"REV_AT_EPOCH":26960,"BSTAR":0.00053698517,"MEAN_MOTION_DOT":0.00053561,"MEAN_MOTION_DDOT":0},{"OBJECT_NAME":"HAWK-3C","OBJECT_ID":"2021-059BX","EPOCH":"2026-04-25T14:09:47.911104","MEAN_MOTION":15.65350352,"ECCENTRICITY":0.00064387,"INCLINATION":97.684,"RA_OF_ASC_NODE":313.0851,"ARG_OF_PERICENTER":154.1588,"MEAN_ANOMALY":205.9994,"EPHEMERIS_TYPE":0,"CLASSIFICATION_TYPE":"U","NORAD_CAT_ID":48948,"ELEMENT_SET_NO":999,"REV_AT_EPOCH":26961,"BSTAR":0.00043962206,"MEAN_MOTION_DOT":0.00043782,"MEAN_MOTION_DDOT":0},{"OBJECT_NAME":"HAWK-3A","OBJECT_ID":"2021-059CG","EPOCH":"2026-04-25T12:37:34.286592","MEAN_MOTION":15.65353655,"ECCENTRICITY":0.0006115,"INCLINATION":97.6785,"RA_OF_ASC_NODE":310.2636,"ARG_OF_PERICENTER":155.4342,"MEAN_ANOMALY":204.7209,"EPHEMERIS_TYPE":0,"CLASSIFICATION_TYPE":"U","NORAD_CAT_ID":48957,"ELEMENT_SET_NO":999,"REV_AT_EPOCH":26960,"BSTAR":0.00046350777,"MEAN_MOTION_DOT":0.00046182,"MEAN_MOTION_DDOT":0},{"OBJECT_NAME":"HAWK-5C","OBJECT_ID":"2022-057Y","EPOCH":"2026-04-25T21:28:52.584384","MEAN_MOTION":15.49469619,"ECCENTRICITY":0.00037047,"INCLINATION":97.6525,"RA_OF_ASC_NODE":272.2983,"ARG_OF_PERICENTER":247.382,"MEAN_ANOMALY":112.7039,"EPHEMERIS_TYPE":0,"CLASSIFICATION_TYPE":"U","NORAD_CAT_ID":52754,"ELEMENT_SET_NO":999,"REV_AT_EPOCH":21824,"BSTAR":0.00039541537,"MEAN_MOTION_DOT":0.00021685,"MEAN_MOTION_DDOT":0},{"OBJECT_NAME":"HAWK-5B","OBJECT_ID":"2022-057AA","EPOCH":"2026-04-25T21:28:41.734272","MEAN_MOTION":15.49472631,"ECCENTRICITY":0.00038903,"INCLINATION":97.6527,"RA_OF_ASC_NODE":270.6411,"ARG_OF_PERICENTER":242.2336,"MEAN_ANOMALY":117.852,"EPHEMERIS_TYPE":0,"CLASSIFICATION_TYPE":"U","NORAD_CAT_ID":52756,"ELEMENT_SET_NO":999,"REV_AT_EPOCH":21824,"BSTAR":0.00041798015,"MEAN_MOTION_DOT":0.00022935,"MEAN_MOTION_DDOT":0},{"OBJECT_NAME":"HAWK-5A","OBJECT_ID":"2022-057AB","EPOCH":"2026-04-25T21:28:20.316576","MEAN_MOTION":15.49468636,"ECCENTRICITY":0.0004092,"INCLINATION":97.6521,"RA_OF_ASC_NODE":271.4743,"ARG_OF_PERICENTER":244.3908,"MEAN_ANOMALY":115.692,"EPHEMERIS_TYPE":0,"CLASSIFICATION_TYPE":"U","NORAD_CAT_ID":52757,"ELEMENT_SET_NO":999,"REV_AT_EPOCH":21824,"BSTAR":0.00039697468,"MEAN_MOTION_DOT":0.00021772,"MEAN_MOTION_DDOT":0},{"OBJECT_NAME":"HAWK-6B","OBJECT_ID":"2023-011A","EPOCH":"2026-04-25T18:42:18.348192","MEAN_MOTION":15.2244698,"ECCENTRICITY":0.00028279,"INCLINATION":40.4993,"RA_OF_ASC_NODE":297.638,"ARG_OF_PERICENTER":354.1039,"MEAN_ANOMALY":5.9736,"EPHEMERIS_TYPE":0,"CLASSIFICATION_TYPE":"U","NORAD_CAT_ID":55324,"ELEMENT_SET_NO":999,"REV_AT_EPOCH":17985,"BSTAR":0.00025314839,"MEAN_MOTION_DOT":5.79e-5,"MEAN_MOTION_DDOT":0},{"OBJECT_NAME":"HAWK-6C","OBJECT_ID":"2023-011C","EPOCH":"2026-04-25T20:15:51.675840","MEAN_MOTION":15.22450942,"ECCENTRICITY":0.00034378,"INCLINATION":40.4983,"RA_OF_ASC_NODE":294.1038,"ARG_OF_PERICENTER":342.1905,"MEAN_ANOMALY":17.8784,"EPHEMERIS_TYPE":0,"CLASSIFICATION_TYPE":"U","NORAD_CAT_ID":55326,"ELEMENT_SET_NO":999,"REV_AT_EPOCH":17987,"BSTAR":0.00025473883,"MEAN_MOTION_DOT":5.828e-5,"MEAN_MOTION_DDOT":0}]
